{
  "type": "FeatureCollection",
  "name": 1394594054,
  "features": [
    {
      "type": "Feature",
      "properties": {
        "LaneLineID": 152264392,
        "Color": 0,
        "LineType": null,
        "FloorID": 1394594054
      },
      "geometry": {
        "type": "LineString",
        "coordinates": [
          [
            5.489126555594748,
            65.43803503061082
          ],
          [
            17.65618242098408,
            53.815371850990374
          ],
          [
            17.739917722212144,
            53.73977068069364
          ],
          [
            17.8277710799303,
            53.668996920065055
          ],
          [
            17.919464572508048,
            53.60327446372385
          ],
          [
            18.014708126157117,
            53.54281122600648
          ],
          [
            18.11320043696088,
            53.48779847894223
          ],
          [
            18.214629925180116,
            53.4384102567181
          ],
          [
            18.318675719793283,
            53.39480279970479
          ],
          [
            18.425008670468813,
            53.35711406071634
          ],
          [
            18.53329239384589,
            53.32546326439865
          ],
          [
            18.643184334524957,
            53.29995054268078
          ],
          [
            18.643184334524957,
            53.29995054268078
          ],
          [
            58.10877720122031,
            45.30010488648423
          ],
          [
            58.233746595548475,
            45.28485169277758
          ],
          [
            58.359563534421916,
            45.28933581327822
          ],
          [
            58.48312998565812,
            45.313446830414485
          ],
          [
            58.60140333635546,
            45.35659105414569
          ],
          [
            58.7114713003295,
            45.417706128077285
          ],
          [
            58.810623642320294,
            45.495287197528405
          ],
          [
            58.89641890064456,
            45.58742395895234
          ],
          [
            58.9667445132191,
            45.691847699891504
          ],
          [
            59.01986882855739,
            45.805987160887845
          ],
          [
            59.0544837493228,
            45.92703184853346
          ],
          [
            59.0544837493228,
            45.92703184853346
          ],
          [
            68.46623332012047,
            92.35796225109335
          ],
          [
            68.48148651312084,
            92.48293164577954
          ],
          [
            68.47700239399154,
            92.60874858299005
          ],
          [
            68.45289137555815,
            92.73231503620144
          ],
          [
            68.40974715188511,
            92.85058838475749
          ],
          [
            68.34863207940148,
            92.9606563501283
          ],
          [
            68.27105100891606,
            93.05980869223424
          ],
          [
            68.1789142474293,
            93.14560395169991
          ],
          [
            68.0744905067297,
            93.21592956259771
          ],
          [
            67.96035104539676,
            93.2690538779173
          ],
          [
            67.83930635858374,
            93.30366879913655
          ],
          [
            67.83930635858374,
            93.30366879913655
          ],
          [
            40.40532488750708,
            98.86465500285249
          ],
          [
            40.28035549281641,
            98.8799081965462
          ],
          [
            40.154538554145475,
            98.87542407624773
          ],
          [
            40.03097210242521,
            98.85131305827144
          ],
          [
            39.9126987529588,
            98.80816883507781
          ],
          [
            39.80263078934667,
            98.74705376117171
          ],
          [
            39.703478445779666,
            98.66947269227921
          ],
          [
            39.61768318711815,
            98.57733593110228
          ],
          [
            39.547357574472656,
            98.47291218964233
          ],
          [
            39.49423326068793,
            98.35877272949644
          ],
          [
            39.459618339635114,
            98.2377280418662
          ],
          [
            39.459618339635114,
            98.2377280418662
          ],
          [
            37.66648317059737,
            89.39166455001987
          ],
          [
            37.62321451806247,
            89.24035869033712
          ],
          [
            37.556809126619136,
            89.0976843652166
          ],
          [
            37.4689021101178,
            88.96715468942082
          ],
          [
            37.36165803655098,
            88.85198373647977
          ],
          [
            37.23771760903716,
            88.75500740017311
          ],
          [
            37.10013265207618,
            88.67861355759382
          ],
          [
            36.952290965030244,
            88.62468327879881
          ],
          [
            36.797832899524266,
            88.59454450634098
          ],
          [
            36.640561728284816,
            88.58893935718783
          ],
          [
            36.48434998442836,
            88.60800584775953
          ],
          [
            36.48434998442836,
            88.60800584775953
          ],
          [
            32.271006331926685,
            89.46206875379076
          ],
          [
            32.119700471825766,
            89.50533740429843
          ],
          [
            31.97702614514858,
            89.57174279855616
          ],
          [
            31.846496470547695,
            89.65964981278944
          ],
          [
            31.731325518060096,
            89.76689388649461
          ],
          [
            31.634349181971245,
            89.89083431453669
          ],
          [
            31.557955338376708,
            90.02841927098449
          ],
          [
            31.504025060800807,
            90.17626095803601
          ],
          [
            31.47388628651439,
            90.3307190225587
          ],
          [
            31.468281138690607,
            90.48799019547296
          ],
          [
            31.48734762911527,
            90.64420193914107
          ],
          [
            31.48734762911527,
            90.64420193914107
          ],
          [
            39.65607451120762,
            130.94293561970676
          ],
          [
            39.742611813496474,
            131.2455473386546
          ],
          [
            39.875422602052524,
            131.5308959891952
          ],
          [
            40.051236629641544,
            131.79195534030455
          ],
          [
            40.26572477753535,
            132.02229724439434
          ],
          [
            40.51360563260051,
            132.21624991797188
          ],
          [
            40.788775544858744,
            132.36903760345163
          ],
          [
            41.0844589195375,
            132.47689816214242
          ],
          [
            41.39337504969773,
            132.53717570703685
          ],
          [
            41.70791739545984,
            132.54838600539267
          ],
          [
            42.02034087941807,
            132.51025302371465
          ],
          [
            42.02034087941807,
            132.51025302371465
          ],
          [
            46.62684291192903,
            131.57649522059077
          ],
          [
            46.751812306128954,
            131.56124202824094
          ],
          [
            46.877629242886954,
            131.56572614856842
          ],
          [
            47.00119569551309,
            131.58983716500993
          ],
          [
            47.11946904468095,
            131.63298138898506
          ],
          [
            47.22953701008345,
            131.69409646341992
          ],
          [
            47.32868935190031,
            131.77167753258465
          ],
          [
            47.41448461105729,
            131.86381429376763
          ],
          [
            47.48481022303871,
            131.96823803546317
          ],
          [
            47.537934539048024,
            132.0823774947815
          ],
          [
            47.57254945872823,
            132.2034221831927
          ],
          [
            47.57254945872823,
            132.2034221831927
          ],
          [
            48.130415145624184,
            134.95553778853778
          ],
          [
            48.71886961655927,
            137.0132965183784
          ],
          [
            49.62198352650044,
            138.9536663097035
          ],
          [
            50.81751922201741,
            140.72886884860895
          ],
          [
            52.27603866979379,
            142.29519278651745
          ],
          [
            53.961628304238474,
            143.61407005287856
          ],
          [
            55.83278333931895,
            144.65302553389583
          ],
          [
            57.84342975949387,
            145.3864767153657
          ],
          [
            59.94405880648346,
            145.79636360531936
          ],
          [
            62.08294605780593,
            145.87259343441772
          ],
          [
            64.20742504342522,
            145.61328917476965
          ],
          [
            64.20742504342522,
            145.61328917476965
          ],
          [
            71.6774342142493,
            144.09908614195982
          ],
          [
            73.74579437313083,
            143.50294760323328
          ],
          [
            75.69372902665178,
            142.5869533413287
          ],
          [
            77.47213091843453,
            141.3741954850078
          ],
          [
            79.03616669395645,
            139.8952475508484
          ],
          [
            80.3464071579927,
            138.18739368407833
          ],
          [
            81.36982126177733,
            136.29368872576538
          ],
          [
            82.0806088326249,
            134.26187280588297
          ],
          [
            82.46085097627346,
            132.14316782067732
          ],
          [
            82.50096182734168,
            129.99098613249106
          ],
          [
            82.19993018983779,
            127.85958404628099
          ],
          [
            82.19993018983779,
            127.85958404628099
          ],
          [
            76.25112494579915,
            98.71145648888837
          ],
          [
            76.2357009145652,
            98.58640092410374
          ],
          [
            76.24004652099266,
            98.4604727288212
          ],
          [
            76.26405458043246,
            98.33677791099102
          ],
          [
            76.30713293656105,
            98.21836739663934
          ],
          [
            76.3682190624215,
            98.10816176995871
          ],
          [
            76.44580627680932,
            98.00887924823388
          ],
          [
            76.53798089268176,
            97.92296862670415
          ],
          [
            76.64246943233509,
            97.85254888441852
          ],
          [
            76.75669469071332,
            97.7993569205122
          ],
          [
            76.87783931213987,
            97.76470470967959
          ],
          [
            76.87783931213987,
            97.76470470967959
          ],
          [
            85.9592409739277,
            95.92386547925648
          ],
          [
            86.08421036793308,
            95.90861228590052
          ],
          [
            86.2100273047128,
            95.91309640494457
          ],
          [
            86.33359375773878,
            95.93720742383613
          ],
          [
            86.45186710797817,
            95.9803516456929
          ],
          [
            86.56193507212927,
            96.04146672023023
          ],
          [
            86.66108741375125,
            96.1190477897159
          ],
          [
            86.7468826733188,
            96.21118455152717
          ],
          [
            86.81720828506984,
            96.31560829125995
          ],
          [
            86.87033259989882,
            96.42974775237029
          ],
          [
            86.90494752062065,
            96.55079244024529
          ],
          [
            86.90494752062065,
            96.55079244024529
          ],
          [
            89.57472655243238,
            109.72159808312855
          ],
          [
            89.61799520279644,
            109.8729039422412
          ],
          [
            89.68440059588178,
            110.0155782681556
          ],
          [
            89.77230761050086,
            110.14610794334077
          ],
          [
            89.87955168483205,
            110.26127889540206
          ],
          [
            90.00349211140403,
            110.35825523237733
          ],
          [
            90.14107706813837,
            110.43464907532397
          ],
          [
            90.28891875501873,
            110.48857935367963
          ],
          [
            90.4433768211442,
            110.51871812630212
          ],
          [
            90.60064799308847,
            110.52432327645803
          ],
          [
            90.75685973502371,
            110.50525678464066
          ],
          [
            90.75685973502371,
            110.50525678464066
          ],
          [
            95.36661727513851,
            109.57083907594183
          ],
          [
            95.51792313323881,
            109.52757042548458
          ],
          [
            95.66059746045153,
            109.46116503188811
          ],
          [
            95.79112713515448,
            109.37325801697301
          ],
          [
            95.90629808621583,
            109.26601394199555
          ],
          [
            96.00327442361612,
            109.14207351523847
          ],
          [
            96.07966826767216,
            109.0044885588028
          ],
          [
            96.13359854494571,
            108.85664687186659
          ],
          [
            96.1637373177149,
            108.70218880643719
          ],
          [
            96.16934246736173,
            108.54491763468899
          ],
          [
            96.15027597541737,
            108.3887058911873
          ],
          [
            96.15027597541737,
            108.3887058911873
          ],
          [
            93.48049694807989,
            95.2179002500004
          ],
          [
            93.46524375265582,
            95.09293085555015
          ],
          [
            93.46972787313746,
            94.96711391713056
          ],
          [
            93.49383889054812,
            94.8435474655721
          ],
          [
            93.53698311327062,
            94.72527411552278
          ],
          [
            93.59809818817948,
            94.61520615099181
          ],
          [
            93.6756792582589,
            94.51605380905706
          ],
          [
            93.76781601971052,
            94.43025855002723
          ],
          [
            93.87223976109533,
            94.3599329372183
          ],
          [
            93.98637921954719,
            94.30680862227098
          ],
          [
            94.10742390872893,
            94.27219370187915
          ],
          [
            94.10742390872893,
            94.27219370187915
          ],
          [
            103.70093327794969,
            92.32754803168568
          ],
          [
            103.82590267112454,
            92.31229483901565
          ],
          [
            103.95171960933847,
            92.31677895812338
          ],
          [
            104.07528606128523,
            92.34088997582279
          ],
          [
            104.19355941305446,
            92.3840341989412
          ],
          [
            104.3036273777671,
            92.44514927291434
          ],
          [
            104.4027797196916,
            92.52273034243052
          ],
          [
            104.48857497751398,
            92.61486710475045
          ],
          [
            104.5589005894343,
            92.7192908452294
          ],
          [
            104.6120249050094,
            92.8334303054994
          ],
          [
            104.64663982486525,
            92.95447499379993
          ],
          [
            104.64663982486525,
            92.95447499379993
          ],
          [
            107.31641885574913,
            106.12528063575891
          ],
          [
            107.35968750592117,
            106.27658649517502
          ],
          [
            107.4260929001279,
            106.41926082076274
          ],
          [
            107.51399991508404,
            106.5497904967691
          ],
          [
            107.62124398793425,
            106.66496144791267
          ],
          [
            107.74518441562033,
            106.76193778432972
          ],
          [
            107.88276937195457,
            106.83833162917705
          ],
          [
            108.03061105936267,
            106.8922619071204
          ],
          [
            108.18506912461794,
            106.92240067966053
          ],
          [
            108.34234029736442,
            106.92800582874224
          ],
          [
            108.49855204073539,
            106.90893933765972
          ],
          [
            108.49855204073539,
            106.90893933765972
          ],
          [
            112.86690495716017,
            106.02345538518288
          ],
          [
            113.01821081762843,
            105.98018673380115
          ],
          [
            113.16088514287168,
            105.91378134062587
          ],
          [
            113.29141481857401,
            105.8258743255247
          ],
          [
            113.40658577064944,
            105.71863025177933
          ],
          [
            113.50356210907339,
            105.59468982445763
          ],
          [
            113.57995595071696,
            105.45710486768286
          ],
          [
            113.63388622958506,
            105.30926318050797
          ],
          [
            113.66402500161708,
            105.15480511575343
          ],
          [
            113.66963015131621,
            104.99753394391446
          ],
          [
            113.65056366051746,
            104.84132220051691
          ],
          [
            113.65056366051746,
            104.84132220051691
          ],
          [
            109.9945602873552,
            86.80518163863073
          ],
          [
            109.90802298551502,
            86.50256991843021
          ],
          [
            109.77521219730211,
            86.2172212681581
          ],
          [
            109.59939816770587,
            85.9561619172145
          ],
          [
            109.38491002040993,
            85.72582001290891
          ],
          [
            109.13702916503658,
            85.53186733888592
          ],
          [
            108.86185925400174,
            85.37907965378005
          ],
          [
            108.56617587895246,
            85.27121909487991
          ],
          [
            108.25725974848547,
            85.21094155163881
          ],
          [
            107.94271740245613,
            85.19973125191683
          ],
          [
            107.6302939176279,
            85.23786423459077
          ],
          [
            107.6302939176279,
            85.23786423459077
          ],
          [
            75.74043405765713,
            91.70207618346625
          ],
          [
            75.61546466409553,
            91.71732937650184
          ],
          [
            75.4896477256825,
            91.71284525720716
          ],
          [
            75.36608127339977,
            91.68873423951604
          ],
          [
            75.24780792417734,
            91.64559001482726
          ],
          [
            75.13773995948776,
            91.58447494131005
          ],
          [
            75.03858761745902,
            91.50689387186232
          ],
          [
            74.95279235787467,
            91.41475711121156
          ],
          [
            74.88246674631944,
            91.31033337022288
          ],
          [
            74.82934243175691,
            91.19619391010916
          ],
          [
            74.794727510384,
            91.0751492210477
          ],
          [
            74.794727510384,
            91.0751492210477
          ],
          [
            72.64296530840554,
            80.45987303183473
          ],
          [
            72.62771211374168,
            80.3349036379749
          ],
          [
            72.63219623372092,
            80.20908670001394
          ],
          [
            72.65630725114497,
            80.08552024772969
          ],
          [
            72.69945147381381,
            79.96724689845975
          ],
          [
            72.76056654904275,
            79.857178934146
          ],
          [
            72.83814761780438,
            79.7580265905691
          ],
          [
            72.93028437938618,
            79.67223133231393
          ],
          [
            73.0347081200285,
            79.60190572086577
          ],
          [
            73.14884758083767,
            79.54878140596117
          ],
          [
            73.26989226879346,
            79.51416648405424
          ],
          [
            73.26989226879346,
            79.51416648405424
          ],
          [
            113.00434496195001,
            71.45982178115031
          ],
          [
            117.88667376379101,
            69.34454229379821
          ],
          [
            150.69951082950075,
            62.69323888629938
          ],
          [
            150.8244802223818,
            62.677985693737476
          ],
          [
            150.95029716179033,
            62.68246981384371
          ],
          [
            151.07386361273095,
            62.706580830721066
          ],
          [
            151.19213696297524,
            62.74972505488285
          ],
          [
            151.302204927995,
            62.810840129281296
          ],
          [
            151.40135727079155,
            62.888421197819234
          ],
          [
            151.4871525290224,
            62.98055795970417
          ],
          [
            151.55747814065947,
            63.084981699133
          ],
          [
            151.61060245556862,
            63.19912116029453
          ],
          [
            151.64521737821656,
            63.320165848887555
          ],
          [
            151.64521737821656,
            63.320165848887555
          ],
          [
            158.08878975770853,
            95.10820467424263
          ],
          [
            158.17559478603488,
            95.41153361167078
          ],
          [
            158.30889135744127,
            95.69749791376003
          ],
          [
            158.48538132847045,
            95.95902200020068
          ],
          [
            158.70069783119465,
            96.18963501178932
          ],
          [
            158.94951331644899,
            96.38363091865915
          ],
          [
            159.22567137188827,
            96.53620970489938
          ],
          [
            159.5223390532424,
            96.64359613229672
          ],
          [
            159.83217594716146,
            96.70313315155302
          ],
          [
            160.14751579785073,
            96.71334764367272
          ],
          [
            160.46055619233616,
            96.67398687500577
          ],
          [
            160.46055619233616,
            96.67398687500577
          ],
          [
            189.0860573027304,
            90.75763949589816
          ],
          [
            189.2368387689072,
            90.7139287540964
          ],
          [
            189.37895146557864,
            90.64722298444478
          ],
          [
            189.50891306308222,
            90.5591567453658
          ],
          [
            189.62353897193037,
            90.45188801666659
          ],
          [
            189.72002039302637,
            90.32804531809047
          ],
          [
            189.795993144022,
            90.19066329556946
          ],
          [
            189.84959558325832,
            90.04310836464911
          ],
          [
            189.8795142343856,
            89.88899621980283
          ],
          [
            189.8850159690586,
            89.73210323193418
          ],
          [
            189.86596597237246,
            89.57627391211672
          ],
          [
            189.86596597237246,
            89.57627391211672
          ],
          [
            188.99630492405925,
            85.28598002961944
          ],
          [
            188.9530362732125,
            85.13467416897817
          ],
          [
            188.88663088022622,
            84.99199984342236
          ],
          [
            188.79872386424626,
            84.86147016864413
          ],
          [
            188.69147979090482,
            84.7462992171931
          ],
          [
            188.56753936324017,
            84.64932288077443
          ],
          [
            188.42995440688827,
            84.57292903676333
          ],
          [
            188.28211271972285,
            84.51899875796823
          ],
          [
            188.12765465518922,
            84.4888599850341
          ],
          [
            187.97038348207826,
            84.483254836809
          ],
          [
            187.81417174028746,
            84.50232132790865
          ],
          [
            187.81417174028746,
            84.50232132790865
          ],
          [
            163.78262448571482,
            89.37361947104111
          ],
          [
            163.65765509261294,
            89.38887266308087
          ],
          [
            163.5318381553233,
            89.38438854473642
          ],
          [
            163.40827170152477,
            89.36027752661872
          ],
          [
            163.28999835246486,
            89.31713330385966
          ],
          [
            163.179930386754,
            89.25601822883354
          ],
          [
            163.08077804447146,
            89.17843715910354
          ],
          [
            162.99498278650597,
            89.08630039779042
          ],
          [
            162.92465717462727,
            88.98187665778326
          ],
          [
            162.8715328596943,
            88.86773719684189
          ],
          [
            162.83691793859342,
            88.74669250859634
          ],
          [
            162.83691793859342,
            88.74669250859634
          ],
          [
            157.39541461330955,
            61.90215523732089
          ],
          [
            157.38016142017838,
            61.77718584308658
          ],
          [
            157.38464553948023,
            61.6513689040637
          ],
          [
            157.4087565584247,
            61.52780245255559
          ],
          [
            157.45190078060105,
            61.4095291030485
          ],
          [
            157.51301585531036,
            61.29946113687026
          ],
          [
            157.59059692533378,
            61.20030879536041
          ],
          [
            157.6827336859098,
            61.114513536170094
          ],
          [
            157.78715742681487,
            61.0441879248387
          ],
          [
            157.90129688702154,
            60.99106360980034
          ],
          [
            158.0223415747655,
            60.956448688206095
          ],
          [
            158.0223415747655,
            60.956448688206095
          ],
          [
            190.85080751841005,
            54.30197723890795
          ],
          [
            191.0021133773821,
            54.258708587417175
          ],
          [
            191.14478770468224,
            54.19230319272103
          ],
          [
            191.27531737867727,
            54.1043961777657
          ],
          [
            191.39048833031168,
            53.997152104009075
          ],
          [
            191.4874646664742,
            53.87321167696547
          ],
          [
            191.56385850938585,
            53.735626721041506
          ],
          [
            191.6177887885867,
            53.58778503341584
          ],
          [
            191.6479275609124,
            53.433326968239
          ],
          [
            191.6535327105158,
            53.276055795651985
          ],
          [
            191.63446621946966,
            53.11984405256561
          ],
          [
            191.63446621946966,
            53.11984405256561
          ],
          [
            190.9272293345349,
            49.63083637189271
          ],
          [
            190.88396068325517,
            49.47953051277369
          ],
          [
            190.81755528929293,
            49.33685618693752
          ],
          [
            190.72964827596877,
            49.206326511061064
          ],
          [
            190.62240420323977,
            49.091155560857665
          ],
          [
            190.4984637747469,
            48.994179222692054
          ],
          [
            190.36087881768148,
            48.91778537939448
          ],
          [
            190.2130371305758,
            48.863855100885964
          ],
          [
            190.05857906610993,
            48.83371632860318
          ],
          [
            189.90130789262886,
            48.82811118024669
          ],
          [
            189.74509615096233,
            48.84717767079615
          ],
          [
            189.74509615096233,
            48.84717767079615
          ],
          [
            174.49236271824162,
            51.938972436361105
          ],
          [
            174.36739332339212,
            51.954225630387334
          ],
          [
            174.24157638610976,
            51.9497415094418
          ],
          [
            174.11800993323234,
            51.925630492813625
          ],
          [
            173.9997365854299,
            51.88248626899474
          ],
          [
            173.8896686185868,
            51.821371195566634
          ],
          [
            173.79051627674954,
            51.74379012537808
          ],
          [
            173.7047210192868,
            51.6516533647072
          ],
          [
            173.6343954068381,
            51.54722962303446
          ],
          [
            173.58127109128594,
            51.43309016307458
          ],
          [
            173.54665617011915,
            51.312045475140394
          ],
          [
            173.54665617011915,
            51.312045475140394
          ],
          [
            168.54508416224783,
            26.637818873003056
          ],
          [
            168.52983096915236,
            26.51284947998424
          ],
          [
            168.53431508964061,
            26.38703254225863
          ],
          [
            168.55842610635676,
            26.263466091102877
          ],
          [
            168.6015703307688,
            26.14519274126133
          ],
          [
            168.6626854041769,
            26.035124774607866
          ],
          [
            168.74026647425143,
            25.935972432223018
          ],
          [
            168.8324032359064,
            25.850177174124294
          ],
          [
            168.93682697595384,
            25.7798515618515
          ],
          [
            169.05096643496734,
            25.72672724734035
          ],
          [
            169.17201112335093,
            25.692112325383796
          ],
          [
            169.17201112335093,
            25.692112325383796
          ],
          [
            177.1021697830988,
            24.084635007760127
          ],
          [
            177.22713917685573,
            24.06938181610019
          ],
          [
            177.3529561164036,
            24.073865935342727
          ],
          [
            177.4765225666557,
            24.097976954307015
          ],
          [
            177.59479591585972,
            24.141121176293066
          ],
          [
            177.7048638818485,
            24.202236251031934
          ],
          [
            177.80401622329637,
            24.279817320490075
          ],
          [
            177.88981148276542,
            24.371954082739478
          ],
          [
            177.96013709444279,
            24.476377822114735
          ],
          [
            178.0132614094054,
            24.59051728275574
          ],
          [
            178.04787633030116,
            24.711561970512484
          ],
          [
            178.04787633030116,
            24.711561970512484
          ],
          [
            183.00888363649094,
            49.185670957491546
          ]
        ]
      }
    },
    {
      "type": "Feature",
      "properties": {
        "LaneLineID": 152252436,
        "Color": 0,
        "LineType": null,
        "FloorID": 1394594054
      },
      "geometry": {
        "type": "LineString",
        "coordinates": [
          [
            190.5280375985063,
            47.66150606089632
          ],
          [
            185.58509178448935,
            23.276499727972155
          ],
          [
            185.3043096332166,
            22.026781838052283
          ],
          [
            184.8187244482888,
            20.841522181942274
          ],
          [
            184.14198038928973,
            19.754024641261545
          ],
          [
            183.29309286894048,
            18.79484613803657
          ],
          [
            182.29591425458372,
            17.990938039204554
          ],
          [
            181.17846365372452,
            17.36488885847193
          ],
          [
            179.97213961957073,
            16.934289570117752
          ],
          [
            178.71083790909668,
            16.711239314636614
          ],
          [
            177.42999906055263,
            16.702005445330773
          ],
          [
            176.165612573308,
            16.906847419225418
          ],
          [
            176.165612573308,
            16.906847419225418
          ],
          [
            167.34088569618424,
            18.69565756747278
          ],
          [
            164.86106507767295,
            19.7099689828766
          ],
          [
            117.85787572779171,
            29.23771791675799
          ],
          [
            112.25067778227913,
            28.941726025637188
          ],
          [
            12.855398123379224,
            49.089577319435705
          ],
          [
            12.745234513869365,
            49.11516124095907
          ],
          [
            12.636687998180584,
            49.146913596168645
          ],
          [
            12.530103676156433,
            49.18473343306892
          ],
          [
            12.425820406675562,
            49.22850051639114
          ],
          [
            12.32416973271242,
            49.27807569597079
          ],
          [
            12.225474827608153,
            49.33330135964619
          ],
          [
            12.130049472219898,
            49.39400193152927
          ],
          [
            12.038197047007074,
            49.45998442874962
          ],
          [
            11.950209573317585,
            49.53103907307873
          ],
          [
            11.866366789190092,
            49.60693996583358
          ],
          [
            11.866366789190092,
            49.60693996583358
          ],
          [
            0.6334410471143528,
            60.36738953771734
          ]
        ]
      }
    },
    {
      "type": "Feature",
      "properties": {
        "LaneLineID": 152211359,
        "Color": 0,
        "LineType": null,
        "FloorID": 1394594054
      },
      "geometry": {
        "type": "LineString",
        "coordinates": [
          [
            44.02879628997523,
            123.30290362492809
          ],
          [
            40.52222084748696,
            106.00393502106476
          ],
          [
            40.50696765421499,
            105.87896562742766
          ],
          [
            40.51145177339564,
            105.75314868863336
          ],
          [
            40.5355627935513,
            105.62958223743577
          ],
          [
            40.578707014912325,
            105.51130888740128
          ],
          [
            40.639822089850995,
            105.4012409231204
          ],
          [
            40.717403158377515,
            105.30208858027744
          ],
          [
            40.80953992019509,
            105.21629332123054
          ],
          [
            40.91396366107318,
            105.14596770899064
          ],
          [
            41.02810312209312,
            105.09284339394424
          ],
          [
            41.14914781083286,
            105.05822847302582
          ],
          [
            41.14914781083286,
            105.05822847302582
          ],
          [
            50.58494886732248,
            103.14555095811066
          ],
          [
            50.709918263039654,
            103.13029776545355
          ],
          [
            50.835735199940416,
            103.13478188569664
          ],
          [
            50.9593016516895,
            103.15889290247523
          ],
          [
            51.07757500137234,
            103.20203712634667
          ],
          [
            51.187642968013044,
            103.26315219993202
          ],
          [
            51.28679531001297,
            103.3407332697681
          ],
          [
            51.37259056781152,
            103.43287003109421
          ],
          [
            51.44291617966985,
            103.53729377210084
          ],
          [
            51.49604049421252,
            103.65143323162809
          ],
          [
            51.53065541484236,
            103.77247792044423
          ],
          [
            51.53065541484236,
            103.77247792044423
          ],
          [
            55.037230857299704,
            121.0714465240373
          ],
          [
            55.052484049897885,
            121.19641591794226
          ],
          [
            55.04799993188211,
            121.32223285663038
          ],
          [
            55.02388891356455,
            121.44579930908516
          ],
          [
            54.98074468979985,
            121.56407265806456
          ],
          [
            54.91962961508125,
            121.67414062354368
          ],
          [
            54.842048546140525,
            121.7732929656426
          ],
          [
            54.74991178402939,
            121.85908822489816
          ],
          [
            54.64548804387012,
            121.92941383573856
          ],
          [
            54.53134858266619,
            121.98253815064392
          ],
          [
            54.41030389507418,
            122.01715307313441
          ],
          [
            54.41030389507418,
            122.01715307313441
          ],
          [
            44.974502837672944,
            123.92983058719132
          ],
          [
            44.02879628997523,
            123.30290362492809
          ]
        ]
      }
    },
    {
      "type": "Feature",
      "properties": {
        "LaneLineID": 152218459,
        "Color": 0,
        "LineType": null,
        "FloorID": 1394594054
      },
      "geometry": {
        "type": "LineString",
        "coordinates": [
          [
            55.23913781935556,
            130.64937170222632
          ],
          [
            55.83684954121493,
            133.59805953222374
          ],
          [
            56.10655451274938,
            134.53299175329812
          ],
          [
            56.523272415409416,
            135.4123012659999
          ],
          [
            57.076129471876904,
            136.2130434882554
          ],
          [
            57.75069950268127,
            136.9143239608157
          ],
          [
            58.52938037096235,
            137.49784357078673
          ],
          [
            59.391853286788844,
            137.9483760322493
          ],
          [
            60.31561299849592,
            138.25416521634108
          ],
          [
            61.27655504653225,
            138.40723190254943
          ],
          [
            62.24960474070021,
            138.4035819881469
          ],
          [
            63.20937145652084,
            138.24331071363312
          ],
          [
            63.20937145652084,
            138.24331071363312
          ],
          [
            70.01895741868017,
            136.86296389806057
          ],
          [
            70.93301130976067,
            136.60441763909625
          ],
          [
            71.79574810289239,
            136.20689290213073
          ],
          [
            72.58618265064578,
            135.6800590467482
          ],
          [
            73.28508849237087,
            135.03673073946453
          ],
          [
            73.87546549528074,
            134.29255624299867
          ],
          [
            74.34295337930902,
            133.46563680163285
          ],
          [
            74.67618100743687,
            132.57608633227807
          ],
          [
            74.86704297326429,
            131.64554219209646
          ],
          [
            74.91089677013217,
            130.6966388617427
          ],
          [
            74.80667569930564,
            129.75245738847485
          ],
          [
            74.80667569930564,
            129.75245738847485
          ],
          [
            68.81966216002704,
            100.21675767845248
          ],
          [
            68.78504723893072,
            100.0957129910064
          ],
          [
            68.73192292328729,
            99.9815735309069
          ],
          [
            68.66159731260245,
            99.87714979014635
          ],
          [
            68.57580205347352,
            99.78501302682312
          ],
          [
            68.47664971109015,
            99.70743195879545
          ],
          [
            68.36658174594514,
            99.64631688390406
          ],
          [
            68.24830839692655,
            99.60317266075215
          ],
          [
            68.12474194456956,
            99.57906164312071
          ],
          [
            67.99892500655392,
            99.57457752289793
          ],
          [
            67.87395561261495,
            99.58983071678456
          ],
          [
            67.87395561261495,
            99.58983071678456
          ],
          [
            58.831312931499994,
            101.42281333568366
          ],
          [
            58.710268243773235,
            101.45742825660002
          ],
          [
            58.59612878372582,
            101.51055257155218
          ],
          [
            58.491705044418445,
            101.58087818417826
          ],
          [
            58.39956828173986,
            101.66667344267319
          ],
          [
            58.32198721251494,
            101.76582578344295
          ],
          [
            58.260872137005194,
            101.87589374887074
          ],
          [
            58.21772791386792,
            101.99416709980721
          ],
          [
            58.1936168955038,
            102.11773355150848
          ],
          [
            58.18913277615461,
            102.24355048847585
          ],
          [
            58.2043859692235,
            102.36851988273267
          ],
          [
            58.2043859692235,
            102.36851988273267
          ],
          [
            63.035889063510396,
            126.20374651056336
          ],
          [
            63.07402204602137,
            126.51616999513281
          ],
          [
            63.062811747157866,
            126.83071234095739
          ],
          [
            63.00253420236766,
            127.139628472489
          ],
          [
            62.89467364524313,
            127.43531184597508
          ],
          [
            62.741885959673944,
            127.71048175827369
          ],
          [
            62.54793328598449,
            127.95836261372033
          ],
          [
            62.31759138212188,
            128.17285076111528
          ],
          [
            62.05653203062219,
            128.34866479034343
          ],
          [
            61.77118337888627,
            128.48147557835486
          ],
          [
            61.46857165864573,
            128.56801288004965
          ],
          [
            61.46857165864573,
            128.56801288004965
          ],
          [
            55.86606478029583,
            129.70366515440648
          ],
          [
            55.23913781935556,
            130.64937170222632
          ]
        ]
      }
    },
    {
      "type": "Feature",
      "properties": {
        "LaneLineID": 152237204,
        "Color": 0,
        "LineType": null,
        "FloorID": 1394594054
      },
      "geometry": {
        "type": "LineString",
        "coordinates": [
          [
            70.89100661196342,
            72.32176042491011
          ],
          [
            68.83886302823419,
            62.19793220828055
          ],
          [
            68.82360983502515,
            62.07296281358546
          ],
          [
            68.82809395444244,
            61.947145875133046
          ],
          [
            68.85220497311819,
            61.82357942384721
          ],
          [
            68.89534919607563,
            61.70530607453679
          ],
          [
            68.95646427067048,
            61.595238108426564
          ],
          [
            69.03404533987664,
            61.49608576709048
          ],
          [
            69.12618210301692,
            61.41029050794416
          ],
          [
            69.23060584200454,
            61.33996489539241
          ],
          [
            69.34474530195362,
            61.28684058061954
          ],
          [
            69.46578999176431,
            61.252225660023285
          ],
          [
            69.46578999176431,
            61.252225660023285
          ],
          [
            163.57807656069113,
            42.175259810347995
          ],
          [
            163.70304595411903,
            42.16000661782701
          ],
          [
            163.82886289285224,
            42.164490736720616
          ],
          [
            163.95242934506734,
            42.18860175476074
          ],
          [
            164.07070269379818,
            42.23174597827739
          ],
          [
            164.18077065933002,
            42.292861052994255
          ],
          [
            164.27992300212583,
            42.37044212220826
          ],
          [
            164.36571826019767,
            42.462578882897574
          ],
          [
            164.43604387187733,
            42.56700262267256
          ],
          [
            164.4891681870814,
            42.6811420849601
          ],
          [
            164.52378310925315,
            42.802186771718134
          ],
          [
            164.52378310925315,
            42.802186771718134
          ],
          [
            166.5759266923922,
            52.92601498904138
          ],
          [
            166.5911798851613,
            53.05098438269977
          ],
          [
            166.58669576596313,
            53.176801320048085
          ],
          [
            166.56258474795297,
            53.30036777298345
          ],
          [
            166.51944052624964,
            53.418641123242125
          ],
          [
            166.45832545173442,
            53.52870908694286
          ],
          [
            166.3807443806992,
            53.62786143004831
          ],
          [
            166.28860762004877,
            53.713656688747854
          ],
          [
            166.1841838797889,
            53.78398230075019
          ],
          [
            166.07004441885442,
            53.837106615330235
          ],
          [
            165.94899973178133,
            53.87172153707876
          ],
          [
            165.94899973178133,
            53.87172153707876
          ],
          [
            71.83671315980702,
            72.94868738717201
          ],
          [
            70.89100661196342,
            72.32176042491011
          ]
        ]
      }
    },
    {
      "type": "Feature",
      "properties": {
        "LaneLineID": 152229009,
        "Color": 0,
        "LineType": null,
        "FloorID": 1394594054
      },
      "geometry": {
        "type": "LineString",
        "coordinates": [
          [
            66.08871875462196,
            44.592139418817354
          ],
          [
            160.20100532168814,
            25.515173571508285
          ],
          [
            160.32597471585032,
            25.499920378734586
          ],
          [
            160.45179165477995,
            25.504404498787725
          ],
          [
            160.57535810593913,
            25.528515516192158
          ],
          [
            160.69363145709426,
            25.571659739055658
          ],
          [
            160.8036994210875,
            25.632774813226842
          ],
          [
            160.90285176342334,
            25.710355883099865
          ],
          [
            160.98864702163263,
            25.802492645604698
          ],
          [
            161.0589726336064,
            25.906916385158482
          ],
          [
            161.11209694899793,
            26.021055845129098
          ],
          [
            161.14671186912258,
            26.142100534376095
          ],
          [
            161.14671186912258,
            26.142100534376095
          ],
          [
            163.12912242011575,
            35.92191516904928
          ],
          [
            163.14437561265652,
            36.04688456221283
          ],
          [
            163.1398914948466,
            36.17270150047743
          ],
          [
            163.1157804768113,
            36.29626795351227
          ],
          [
            163.0726362518049,
            36.41454130313494
          ],
          [
            163.01152117936815,
            36.52460926769592
          ],
          [
            162.9339401083041,
            36.62376160997574
          ],
          [
            162.84180334744315,
            36.70955686770366
          ],
          [
            162.73737960719643,
            36.77988248126237
          ],
          [
            162.6232401472589,
            36.83300679551546
          ],
          [
            162.50219545833093,
            36.86762171635797
          ],
          [
            162.50219545833093,
            36.86762171635797
          ],
          [
            68.38990888879485,
            55.9445875662737
          ],
          [
            68.26493949417006,
            55.95984075763272
          ],
          [
            68.13912255600287,
            55.95535663780563
          ],
          [
            68.01555610397781,
            55.931245621017766
          ],
          [
            67.89728275416842,
            55.88810139729678
          ],
          [
            67.78721479040321,
            55.82698632311521
          ],
          [
            67.68806244798773,
            55.7494052524144
          ],
          [
            67.60226718826095,
            55.65726849254426
          ],
          [
            67.53194157687308,
            55.5528447509796
          ],
          [
            67.47881726291426,
            55.43870529121082
          ],
          [
            67.44420234051384,
            55.31766060290232
          ],
          [
            67.44420234051384,
            55.31766060290232
          ],
          [
            65.46179179250271,
            45.537845966345564
          ],
          [
            66.08871875462196,
            44.592139418817354
          ]
        ]
      }
    }
  ]
}