{
  "type": "FeatureCollection",
  "name": 1394594054,
  "features": [
    {
      "type": "Feature",
      "properties": {
        "JunctionID": 142290028,
        "EnterLinkIDs": [
          132233745,
          132265820,
          132220112
        ],
        "ExitLinkIDs": [
          132294579,
          132288528,
          132254069
        ],
        "FloorID": null
      },
      "geometry": {
        "type": "Polygon",
        "coordinates": [
          [
            [
              53.057201810776384,
              124.47215423421684
            ],
            [
              50.116998797842015,
              125.06814604853281
            ],
            [
              50.414994705,
              126.538247555
            ],
            [
              50.116998797761326,
              125.06814604854917
            ],
            [
              47.176795784859664,
              125.66413786302651
            ],
            [
              47.77278759933701,
              128.60434087592816
            ],
            [
              49.24288910581196,
              128.30634496868458
            ],
            [
              49.54088501307965,
              129.77644647515467
            ],
            [
              52.48108802597154,
              129.1804546606291
            ],
            [
              52.18309211872999,
              127.71035315428796
            ],
            [
              53.65319362509235,
              127.41235724715122
            ],
            [
              53.057201810776384,
              124.47215423421684
            ]
          ]
        ]
      }
    },
    {
      "type": "Feature",
      "properties": {
        "JunctionID": 142242205,
        "EnterLinkIDs": [
          132262485,
          132286105,
          132226678
        ],
        "ExitLinkIDs": [
          132294365,
          132287921,
          132275772
        ],
        "FloorID": null
      },
      "geometry": {
        "type": "Polygon",
        "coordinates": [
          [
            [
              156.69741759433066,
              57.08174065364682
            ],
            [
              153.7572145815407,
              57.67773246859389
            ],
            [
              150.81701156872847,
              58.27372428351248
            ],
            [
              151.41300338364707,
              61.2139272963247
            ],
            [
              152.88310488970455,
              60.91593138893607
            ],
            [
              153.18110079674454,
              62.38603289506422
            ],
            [
              156.12130380969808,
              61.7900410808429
            ],
            [
              155.82330790251353,
              60.31993957400164
            ],
            [
              157.2934094092809,
              60.021943666452614
            ],
            [
              156.69741759433066,
              57.08174065364682
            ]
          ]
        ]
      }
    },
    {
      "type": "Feature",
      "properties": {
        "JunctionID": 142298982,
        "EnterLinkIDs": [
          132287921,
          132230958
        ],
        "ExitLinkIDs": [
          132286105,
          132204792
        ],
        "FloorID": null
      },
      "geometry": {
        "type": "Polygon",
        "coordinates": [
          [
            [
              168.76551283487677,
              53.10497921138429
            ],
            [
              169.06350874135103,
              54.575080714025816
            ],
            [
              167.59340723471908,
              54.87307662154738
            ],
            [
              168.18939904966933,
              57.81327963435318
            ],
            [
              171.12960206247513,
              57.2172878194029
            ],
            [
              174.0698050752695,
              56.62129600449498
            ],
            [
              173.47381326035767,
              53.68109299168138
            ],
            [
              172.0037117541607,
              53.97908889909477
            ],
            [
              171.7057158477754,
              52.50898739689208
            ],
            [
              168.76551283487677,
              53.10497921138429
            ]
          ]
        ]
      }
    },
    {
      "type": "Feature",
      "properties": {
        "JunctionID": 142235931,
        "EnterLinkIDs": [
          132294619,
          132275772
        ],
        "ExitLinkIDs": [
          132282075,
          132226678
        ],
        "FloorID": null
      },
      "geometry": {
        "type": "Polygon",
        "coordinates": [
          [
            [
              158.8179736063019,
              90.1943853301571
            ],
            [
              159.41396542052323,
              93.13458834311066
            ],
            [
              160.884066927,
              92.836592436
            ],
            [
              161.1820628346447,
              94.30669394236853
            ],
            [
              164.12226584738175,
              93.7107021270791
            ],
            [
              163.52627403209232,
              90.77049911434206
            ],
            [
              162.05617252625785,
              91.06849502187852
            ],
            [
              161.75817661925544,
              89.59839351593578
            ],
            [
              158.8179736063019,
              90.1943853301571
            ]
          ]
        ]
      }
    },
    {
      "type": "Feature",
      "properties": {
        "JunctionID": 142273694,
        "EnterLinkIDs": [
          132284060,
          132293305,
          132290413,
          132201252
        ],
        "ExitLinkIDs": [
          132261415,
          132235141,
          132292095,
          132253666
        ],
        "FloorID": null
      },
      "geometry": {
        "type": "Polygon",
        "coordinates": [
          [
            [
              63.05521025368498,
              60.14695657353187
            ],
            [
              64.52531333,
              59.848968411
            ],
            [
              63.05521025369682,
              60.146956573590245
            ],
            [
              63.65118657887731,
              63.08716272619662
            ],
            [
              66.59139273148368,
              62.49118640101613
            ],
            [
              66.29340299903488,
              61.021075579929146
            ],
            [
              67.76351225023049,
              60.723078102639484
            ],
            [
              67.16752043544989,
              57.7828750897993
            ],
            [
              65.69742667390449,
              58.080869427270144
            ],
            [
              65.39944008125129,
              56.610774095838096
            ],
            [
              62.459233928621245,
              57.20675042090183
            ],
            [
              63.05521025368498,
              60.14695657353187
            ]
          ]
        ]
      }
    },
    {
      "type": "Feature",
      "properties": {
        "JunctionID": 142238231,
        "EnterLinkIDs": [
          132235141,
          132229042,
          132246092
        ],
        "ExitLinkIDs": [
          132293305,
          132211582,
          132267381
        ],
        "FloorID": null
      },
      "geometry": {
        "type": "Polygon",
        "coordinates": [
          [
            [
              63.60452705560541,
              40.20510460299819
            ],
            [
              60.6643240427511,
              40.80109641755124
            ],
            [
              57.724121029853585,
              41.39708823204904
            ],
            [
              58.32011284435139,
              44.337291244946556
            ],
            [
              59.790206606066846,
              44.03929690758845
            ],
            [
              60.08819319874872,
              45.509392239161905
            ],
            [
              63.02839935137876,
              44.91341591409816
            ],
            [
              62.730409618998934,
              43.44330509305164
            ],
            [
              64.2005188701647,
              43.14530761588324
            ],
            [
              63.60452705560541,
              40.20510460299819
            ]
          ]
        ]
      }
    },
    {
      "type": "Feature",
      "properties": {
        "JunctionID": 142230033,
        "EnterLinkIDs": [
          132276946,
          132261415,
          132274597,
          132279462
        ],
        "ExitLinkIDs": [
          132210736,
          132284060,
          132211396,
          132222890
        ],
        "FloorID": null
      },
      "geometry": {
        "type": "Polygon",
        "coordinates": [
          [
            [
              69.9295779349306,
              94.06115298990059
            ],
            [
              68.45946868387075,
              94.35915046698547
            ],
            [
              69.05546049831084,
              97.29935347989469
            ],
            [
              70.52555426014457,
              97.00135914254265
            ],
            [
              70.82354085293281,
              98.4714544742116
            ],
            [
              73.76374700552896,
              97.87547814898072
            ],
            [
              73.46575727308698,
              96.40536732805681
            ],
            [
              74.93586652415155,
              96.10736985093193
            ],
            [
              74.33987470963649,
              93.16716683803791
            ],
            [
              72.86978094787304,
              93.46516117541474
            ],
            [
              72.5717943551227,
              91.99506584380339
            ],
            [
              69.63158820251633,
              92.59104216898388
            ],
            [
              69.9295779349306,
              94.06115298990059
            ]
          ]
        ]
      }
    },
    {
      "type": "Feature",
      "properties": {
        "JunctionID": 142250234,
        "EnterLinkIDs": [
          132210736,
          132251274
        ],
        "ExitLinkIDs": [
          132276946,
          132200313
        ],
        "FloorID": null
      },
      "geometry": {
        "type": "Polygon",
        "coordinates": [
          [
            [
              75.77787932447104,
              122.91332546701928
            ],
            [
              76.37385564970192,
              125.85353161961544
            ],
            [
              77.843958726,
              125.555543457
            ],
            [
              76.37389754024814,
              125.85373820904276
            ],
            [
              76.97028704433366,
              128.79386058054646
            ],
            [
              79.91040941583738,
              128.19747107646097
            ],
            [
              79.31404086427266,
              125.25745199814854
            ],
            [
              78.71808547706719,
              122.3173491417884
            ],
            [
              75.77787932447104,
              122.91332546701928
            ]
          ]
        ]
      }
    },
    {
      "type": "Feature",
      "properties": {
        "JunctionID": 142253557,
        "EnterLinkIDs": [
          132288476,
          132231076,
          132292095
        ],
        "ExitLinkIDs": [
          132252220,
          132271576,
          132290413
        ],
        "FloorID": null
      },
      "geometry": {
        "type": "Polygon",
        "coordinates": [
          [
            [
              165.36851787181203,
              36.346603376540145
            ],
            [
              165.6665137791967,
              37.81670488296877
            ],
            [
              164.1964122727695,
              38.114700790360516
            ],
            [
              164.79240408755012,
              41.0549038032007
            ],
            [
              166.26250559390093,
              40.75690789582445
            ],
            [
              166.56050150120788,
              42.22700940218929
            ],
            [
              169.50070451407615,
              41.63101758754727
            ],
            [
              168.90471269943413,
              38.69081457467899
            ],
            [
              167.434611193,
              38.988810482
            ],
            [
              168.90471269942154,
              38.69081457461679
            ],
            [
              168.30872088465512,
              35.750611561773724
            ],
            [
              165.36851787181203,
              36.346603376540145
            ]
          ]
        ]
      }
    },
    {
      "type": "Feature",
      "properties": {
        "JunctionID": 142205822,
        "EnterLinkIDs": [
          132271576,
          132211020,
          132211582
        ],
        "ExitLinkIDs": [
          132231076,
          132248873,
          132229042
        ],
        "FloorID": null
      },
      "geometry": {
        "type": "Polygon",
        "coordinates": [
          [
            [
              166.72963264546092,
              20.41006531281341
            ],
            [
              163.78942963261755,
              21.006057127578316
            ],
            [
              164.08742554,
              22.476158634
            ],
            [
              163.78942963255957,
              21.00605712759007
            ],
            [
              160.8492266197397,
              21.60204894247093
            ],
            [
              161.44521843462056,
              24.542251955290794
            ],
            [
              162.91531994097326,
              24.244256047861963
            ],
            [
              163.21331584834488,
              25.714357554226275
            ],
            [
              166.15351886118796,
              25.118365739459854
            ],
            [
              165.8555229538049,
              23.648264233039075
            ],
            [
              167.3256244602258,
              23.350268325656778
            ],
            [
              166.72963264546092,
              20.41006531281341
            ]
          ]
        ]
      }
    },
    {
      "type": "Feature",
      "properties": {
        "JunctionID": 142206190,
        "EnterLinkIDs": [
          132293743,
          132287950
        ],
        "ExitLinkIDs": [
          132223283,
          132203085
        ],
        "FloorID": null
      },
      "geometry": {
        "type": "Polygon",
        "coordinates": [
          [
            [
              104.34170387541583,
              90.146679965029
            ],
            [
              105.8118053817072,
              89.84868405776425
            ],
            [
              106.10980128882383,
              91.31878556408562
            ],
            [
              109.05000430176278,
              90.7227937497923
            ],
            [
              108.45401248746947,
              87.78259073685334
            ],
            [
              106.983910981,
              88.080586644
            ],
            [
              106.68591507370523,
              86.61048513756053
            ],
            [
              103.7457120608263,
              87.20647695215007
            ],
            [
              104.34170387541583,
              90.146679965029
            ]
          ]
        ]
      }
    },
    {
      "type": "Feature",
      "properties": {
        "JunctionID": 142295557,
        "EnterLinkIDs": [
          132223283,
          132211396,
          132256152
        ],
        "ExitLinkIDs": [
          132293743,
          132274597,
          132242317
        ],
        "FloorID": null
      },
      "geometry": {
        "type": "Polygon",
        "coordinates": [
          [
            [
              91.93399110358416,
              89.600763664971
            ],
            [
              88.99378809070524,
              90.19675547956054
            ],
            [
              86.05358507784845,
              90.79274729406806
            ],
            [
              86.64957689236351,
              93.73295030696208
            ],
            [
              88.11967839853514,
              93.43495439976036
            ],
            [
              88.41767430546147,
              94.90505590598781
            ],
            [
              91.35787731846713,
              94.3090640920235
            ],
            [
              91.05988141142161,
              92.83896258520807
            ],
            [
              92.52998291817369,
              92.54096667784992
            ],
            [
              91.93399110358416,
              89.600763664971
            ]
          ]
        ]
      }
    },
    {
      "type": "Feature",
      "properties": {
        "JunctionID": 142273386,
        "EnterLinkIDs": [
          132222890,
          132253995,
          132276409
        ],
        "ExitLinkIDs": [
          132279462,
          132256627,
          132283038
        ],
        "FloorID": null
      },
      "geometry": {
        "type": "Polygon",
        "coordinates": [
          [
            [
              56.54973713568917,
              96.7733043481053
            ],
            [
              53.609534122779955,
              97.36929616254538
            ],
            [
              53.90753003,
              98.839397669
            ],
            [
              53.609534122721406,
              97.36929616255725
            ],
            [
              50.66933110983593,
              97.96528797711443
            ],
            [
              51.26532292439311,
              100.90549098999992
            ],
            [
              52.73542443056571,
              100.60749508277608
            ],
            [
              53.0334203375194,
              102.07759658900345
            ],
            [
              55.9736233505144,
              101.48160477498654
            ],
            [
              55.67562744346306,
              100.01150326827745
            ],
            [
              57.145728950129254,
              99.71350736101452
            ],
            [
              56.54973713568917,
              96.7733043481053
            ]
          ]
        ]
      }
    },
    {
      "type": "Feature",
      "properties": {
        "JunctionID": 142297430,
        "EnterLinkIDs": [
          132256627,
          132291339,
          132273777
        ],
        "ExitLinkIDs": [
          132253995,
          132268441,
          132237269
        ],
        "FloorID": null
      },
      "geometry": {
        "type": "Polygon",
        "coordinates": [
          [
            [
              34.162390129913916,
              99.77328456089636
            ],
            [
              34.743847082741325,
              102.7163964874137
            ],
            [
              36.215403046,
              102.425668011
            ],
            [
              34.74530153950474,
              102.72366391801948
            ],
            [
              35.34129335354372,
              105.66386693101
            ],
            [
              38.28149636653424,
              105.06787511697104
            ],
            [
              37.98350045946223,
              103.59777361021668
            ],
            [
              39.453601966164065,
              103.29977770288556
            ],
            [
              38.857610151606885,
              100.35957469000007
            ],
            [
              37.394790472679254,
              100.65609453947755
            ],
            [
              37.10550205643126,
              99.19182760806895
            ],
            [
              34.162390129913916,
              99.77328456089636
            ]
          ]
        ]
      }
    },
    {
      "type": "Feature",
      "properties": {
        "JunctionID": 142244168,
        "EnterLinkIDs": [
          132283038,
          132288528
        ],
        "ExitLinkIDs": [
          132276409,
          132265820
        ],
        "FloorID": null
      },
      "geometry": {
        "type": "Polygon",
        "coordinates": [
          [
            [
              57.096675281485595,
              122.12282900301345
            ],
            [
              57.394671188524356,
              123.59293050966048
            ],
            [
              55.92456968190765,
              123.89092641684877
            ],
            [
              56.520561496223614,
              126.83112942978315
            ],
            [
              59.46076450915798,
              126.23513761546718
            ],
            [
              59.162768602,
              124.765036109
            ],
            [
              60.6328701084975,
              124.46704020199154
            ],
            [
              60.036878294480594,
              121.52683718899654
            ],
            [
              57.096675281485595,
              122.12282900301345
            ]
          ]
        ]
      }
    },
    {
      "type": "Feature",
      "properties": {
        "JunctionID": 142297602,
        "EnterLinkIDs": [
          132254069,
          132268441
        ],
        "ExitLinkIDs": [
          132220112,
          132291339
        ],
        "FloorID": null
      },
      "geometry": {
        "type": "Polygon",
        "coordinates": [
          [
            [
              39.40454829746576,
              125.70909934402897
            ],
            [
              40.00054011150474,
              128.6493023570195
            ],
            [
              41.470641618,
              128.35130645
            ],
            [
              41.768637525238674,
              129.82140795645083
            ],
            [
              44.708840538140336,
              129.22541614197348
            ],
            [
              44.11284872366299,
              126.28521312907183
            ],
            [
              42.64274721743134,
              126.58320903626608
            ],
            [
              42.34475131045628,
              125.11310752999
            ],
            [
              39.40454829746576,
              125.70909934402897
            ]
          ]
        ]
      }
    }
  ]
}